start=new Date('2021-11-23T00:00:00.000Z').valueOf();
sats=[{"OBJECT_TYPE":"PAYLOAD","FILE":"3221466","PERIOD":"95.592","REV_AT_EPOCH":"11229","TLE_LINE1":"1 44752U 19074AR  21326.61237485  .00001358  00000-0  11003-3 0  9998","ARG_OF_PERICENTER":"58.2833","OBJECT_NAME":"STARLINK-1047","RCS_SIZE":"LARGE","RA_OF_ASC_NODE":"45.9823","SEMIMAJOR_AXIS":"6925.337","SITE":"AFETR","MEAN_ELEMENT_THEORY":"SGP4","PERIAPSIS":"546.380","ELEMENT_SET_NO":"999","CLASSIFICATION_TYPE":"U","NORAD_CAT_ID":"44752","MEAN_MOTION_DDOT":"0.0000000000000","APOAPSIS":"548.024","MEAN_MOTION":"15.06403814","EPOCH":"2021-11-22T14:41:49.187040","INCLINATION":"53.0548","TLE_LINE2":"2 44752  53.0548  45.9823 0001187  58.2833 301.8271 15.06403814112295","BSTAR":"0.00011003000000","LAUNCH_DATE":"2019-11-11","DECAY_DATE":null,"MEAN_ANOMALY":"301.8271","REF_FRAME":"TEME","GP_ID":"190269703","MEAN_MOTION_DOT":"0.00001358","ECCENTRICITY":"0.00011870","TIME_SYSTEM":"UTC","CENTER_NAME":"EARTH","EPHEMERIS_TYPE":"0","COUNTRY_CODE":"US","OBJECT_ID":"2019-074AR"},{"CLASSIFICATION_TYPE":"U","NORAD_CAT_ID":"44753","SITE":"AFETR","MEAN_ELEMENT_THEORY":"SGP4","ELEMENT_SET_NO":"999","PERIAPSIS":"546.431","RA_OF_ASC_NODE":"27.1707","SEMIMAJOR_AXIS":"6925.361","OBJECT_NAME":"STARLINK-1048","ARG_OF_PERICENTER":"75.5655","RCS_SIZE":"LARGE","PERIOD":"95.592","REV_AT_EPOCH":"11236","TLE_LINE1":"1 44753U 19074AS  21326.35252811  .00002216  00000-0  16765-3 0  9994","OBJECT_TYPE":"PAYLOAD","FILE":"3221278","EPHEMERIS_TYPE":"0","COUNTRY_CODE":"US","OBJECT_ID":"2019-074AS","TIME_SYSTEM":"UTC","CENTER_NAME":"EARTH","ECCENTRICITY":"0.00011490","REF_FRAME":"TEME","MEAN_ANOMALY":"284.5462","GP_ID":"190263280","MEAN_MOTION_DOT":"0.00002216","TLE_LINE2":"2 44753  53.0543  27.1707 0001149  75.5655 284.5462 15.06395819112368","LAUNCH_DATE":"2019-11-11","BSTAR":"0.00016765000000","DECAY_DATE":null,"EPOCH":"2021-11-22T08:27:38.428704","INCLINATION":"53.0543","MEAN_MOTION_DDOT":"0.0000000000000","APOAPSIS":"548.022","MEAN_MOTION":"15.06395819"},{"EPHEMERIS_TYPE":"0","COUNTRY_CODE":"US","OBJECT_ID":"2019-074AT","TIME_SYSTEM":"UTC","CENTER_NAME":"EARTH","ECCENTRICITY":"0.00010950","MEAN_ANOMALY":"296.1110","REF_FRAME":"TEME","GP_ID":"190261535","MEAN_MOTION_DOT":"0.00001432","TLE_LINE2":"2 44754  53.0565  26.2533 0001095  63.9991 296.1110 15.06403323112396","LAUNCH_DATE":"2019-11-11","BSTAR":"0.00011502000000","DECAY_DATE":null,"EPOCH":"2021-11-22T13:19:33.188736","INCLINATION":"53.0565","MEAN_MOTION_DDOT":"0.0000000000000","APOAPSIS":"547.962","MEAN_MOTION":"15.06403323","CLASSIFICATION_TYPE":"U","NORAD_CAT_ID":"44754","SITE":"AFETR","MEAN_ELEMENT_THEORY":"SGP4","ELEMENT_SET_NO":"999","PERIAPSIS":"546.445","SEMIMAJOR_AXIS":"6925.338","RA_OF_ASC_NODE":"26.2533","OBJECT_NAME":"STARLINK-1049","ARG_OF_PERICENTER":"63.9991","RCS_SIZE":"LARGE","PERIOD":"95.592","TLE_LINE1":"1 44754U 19074AT  21326.55524524  .00001432  00000-0  11502-3 0  9993","REV_AT_EPOCH":"11239","OBJECT_TYPE":"PAYLOAD","FILE":"3221278"},{"GP_ID":"190262286","MEAN_MOTION_DOT":"-0.00000079","REF_FRAME":"TEME","MEAN_ANOMALY":"279.6699","ECCENTRICITY":"0.00011200","CENTER_NAME":"EARTH","TIME_SYSTEM":"UTC","OBJECT_ID":"2019-074AU","EPHEMERIS_TYPE":"0","COUNTRY_CODE":"US","MEAN_MOTION":"15.06397460","MEAN_MOTION_DDOT":"0.0000000000000","APOAPSIS":"547.997","INCLINATION":"53.0537","EPOCH":"2021-11-22T09:45:52.937280","LAUNCH_DATE":"2019-11-11","BSTAR":"0.00001355400000","DECAY_DATE":null,"TLE_LINE2":"2 44755  53.0537  66.9433 0001120  80.4417 279.6699 15.06397460112361","SEMIMAJOR_AXIS":"6925.356","RA_OF_ASC_NODE":"66.9433","MEAN_ELEMENT_THEORY":"SGP4","ELEMENT_SET_NO":"999","PERIAPSIS":"546.446","SITE":"AFETR","NORAD_CAT_ID":"44755","CLASSIFICATION_TYPE":"U","FILE":"3221278","OBJECT_TYPE":"PAYLOAD","TLE_LINE1":"1 44755U 19074AU  21326.40686270 -.00000079  00000-0  13554-4 0  9992","REV_AT_EPOCH":"11236","PERIOD":"95.592","RCS_SIZE":"LARGE","ARG_OF_PERICENTER":"80.4417","OBJECT_NAME":"STARLINK-1050"},{"MEAN_ELEMENT_THEORY":"SGP4","ELEMENT_SET_NO":"999","PERIAPSIS":"306.742","SITE":"AFETR","NORAD_CAT_ID":"44756","CLASSIFICATION_TYPE":"U","SEMIMAJOR_AXIS":"6686.142","RA_OF_ASC_NODE":"307.0582","RCS_SIZE":"LARGE","ARG_OF_PERICENTER":"34.5441","OBJECT_NAME":"STARLINK-1051","FILE":"3221278","OBJECT_TYPE":"PAYLOAD","REV_AT_EPOCH":"11348","TLE_LINE1":"1 44756U 19074AV  21326.34611837 -.00123883  00000-0 -45039-3 0  9995","PERIOD":"90.682","CENTER_NAME":"EARTH","TIME_SYSTEM":"UTC","OBJECT_ID":"2019-074AV","EPHEMERIS_TYPE":"0","COUNTRY_CODE":"US","GP_ID":"190262537","MEAN_MOTION_DOT":"-0.00123883","MEAN_ANOMALY":"325.5706","REF_FRAME":"TEME","ECCENTRICITY":"0.00018920","LAUNCH_DATE":"2019-11-11","BSTAR":"-0.00045039000000","DECAY_DATE":null,"TLE_LINE2":"2 44756  53.0501 307.0582 0001892  34.5441 325.5706 15.87959329113481","MEAN_MOTION":"15.87959329","MEAN_MOTION_DDOT":"0.0000000000000","APOAPSIS":"309.272","INCLINATION":"53.0501","EPOCH":"2021-11-22T08:18:24.627168"},{"CENTER_NAME":"EARTH","TIME_SYSTEM":"UTC","OBJECT_ID":"2019-074AW","COUNTRY_CODE":"US","EPHEMERIS_TYPE":"0","MEAN_MOTION_DOT":"-0.00000120","GP_ID":"190262780","MEAN_ANOMALY":"295.9275","REF_FRAME":"TEME","ECCENTRICITY":"0.00015000","DECAY_DATE":null,"LAUNCH_DATE":"2019-11-11","BSTAR":"0.00001081300000","TLE_LINE2":"2 44757  53.0575  47.1239 0001500  64.1869 295.9275 15.06410892112087","MEAN_MOTION":"15.06410892","APOAPSIS":"548.219","MEAN_MOTION_DDOT":"0.0000000000000","INCLINATION":"53.0575","EPOCH":"2021-11-22T08:35:34.659456","ELEMENT_SET_NO":"999","PERIAPSIS":"546.141","MEAN_ELEMENT_THEORY":"SGP4","SITE":"AFETR","NORAD_CAT_ID":"44757","CLASSIFICATION_TYPE":"U","SEMIMAJOR_AXIS":"6925.315","RA_OF_ASC_NODE":"47.1239","RCS_SIZE":"LARGE","OBJECT_NAME":"STARLINK-1052","ARG_OF_PERICENTER":"64.1869","FILE":"3221278","OBJECT_TYPE":"PAYLOAD","TLE_LINE1":"1 44757U 19074AW  21326.35804004 -.00000120  00000-0  10813-4 0  9997","REV_AT_EPOCH":"11208","PERIOD":"95.591"},{"EPOCH":"2021-11-22T13:34:06.525984","INCLINATION":"53.0568","MEAN_MOTION_DDOT":"0.0000000000000","APOAPSIS":"547.944","MEAN_MOTION":"15.06402686","TLE_LINE2":"2 44758  53.0568  66.1920 0001066  80.6952 279.4157 15.06402686112012","LAUNCH_DATE":"2019-11-11","BSTAR":"0.00012815000000","DECAY_DATE":null,"ECCENTRICITY":"0.00010660","REF_FRAME":"TEME","MEAN_ANOMALY":"279.4157","GP_ID":"190269763","MEAN_MOTION_DOT":"0.00001628","EPHEMERIS_TYPE":"0","COUNTRY_CODE":"US","OBJECT_ID":"2019-074AX","TIME_SYSTEM":"UTC","CENTER_NAME":"EARTH","PERIOD":"95.592","REV_AT_EPOCH":"11201","TLE_LINE1":"1 44758U 19074AX  21326.56535331  .00001628  00000-0  12815-3 0  9991","OBJECT_TYPE":"PAYLOAD","FILE":"3221468","ARG_OF_PERICENTER":"80.6952","OBJECT_NAME":"STARLINK-1053","RCS_SIZE":"LARGE","RA_OF_ASC_NODE":"66.1920","SEMIMAJOR_AXIS":"6925.340","CLASSIFICATION_TYPE":"U","NORAD_CAT_ID":"44758","SITE":"AFETR","MEAN_ELEMENT_THEORY":"SGP4","ELEMENT_SET_NO":"999","PERIAPSIS":"546.467"},{"GP_ID":"190270036","MEAN_MOTION_DOT":"-0.00000346","MEAN_ANOMALY":"282.4363","REF_FRAME":"TEME","ECCENTRICITY":"0.00012710","CENTER_NAME":"EARTH","TIME_SYSTEM":"UTC","OBJECT_ID":"2019-074AY","COUNTRY_CODE":"US","EPHEMERIS_TYPE":"0","MEAN_MOTION":"15.06397005","APOAPSIS":"548.103","MEAN_MOTION_DDOT":"0.0000000000000","INCLINATION":"53.0560","EPOCH":"2021-11-22T16:30:38.100672","DECAY_DATE":null,"BSTAR":"-0.00000431570000","LAUNCH_DATE":"2019-11-11","TLE_LINE2":"2 44759  53.0560  65.6617 0001271  77.6769 282.4363 15.06397005112035","SEMIMAJOR_AXIS":"6925.358","RA_OF_ASC_NODE":"65.6617","PERIAPSIS":"546.343","ELEMENT_SET_NO":"999","MEAN_ELEMENT_THEORY":"SGP4","SITE":"AFETR","NORAD_CAT_ID":"44759","CLASSIFICATION_TYPE":"U","FILE":"3221463","OBJECT_TYPE":"PAYLOAD","TLE_LINE1":"1 44759U 19074AY  21326.68794098 -.00000346  00000-0 -43157-5 0  9995","REV_AT_EPOCH":"11203","PERIOD":"95.592","RCS_SIZE":"LARGE","OBJECT_NAME":"STARLINK-1054","ARG_OF_PERICENTER":"77.6769"},{"RA_OF_ASC_NODE":"65.7180","SEMIMAJOR_AXIS":"6925.358","MEAN_ELEMENT_THEORY":"SGP4","PERIAPSIS":"546.223","ELEMENT_SET_NO":"999","SITE":"AFETR","NORAD_CAT_ID":"44760","CLASSIFICATION_TYPE":"U","FILE":"3221468","OBJECT_TYPE":"PAYLOAD","REV_AT_EPOCH":"11203","TLE_LINE1":"1 44760U 19074AZ  21326.67320310  .00001768  00000-0  13757-3 0  9996","PERIOD":"95.592","RCS_SIZE":"LARGE","OBJECT_NAME":"STARLINK-1055","ARG_OF_PERICENTER":"85.9825","MEAN_MOTION_DOT":"0.00001768","GP_ID":"190269760","REF_FRAME":"TEME","MEAN_ANOMALY":"274.1329","ECCENTRICITY":"0.00014450","CENTER_NAME":"EARTH","TIME_SYSTEM":"UTC","OBJECT_ID":"2019-074AZ","EPHEMERIS_TYPE":"0","COUNTRY_CODE":"US","MEAN_MOTION":"15.06396772","MEAN_MOTION_DDOT":"0.0000000000000","APOAPSIS":"548.224","INCLINATION":"53.0538","EPOCH":"2021-11-22T16:09:24.747840","LAUNCH_DATE":"2019-11-11","BSTAR":"0.00013757000000","DECAY_DATE":null,"TLE_LINE2":"2 44760  53.0538  65.7180 0001445  85.9825 274.1329 15.06396772112036"},{"EPOCH":"2021-11-22T16:25:19.541280","INCLINATION":"53.0551","MEAN_MOTION_DDOT":"0.0000000000000","APOAPSIS":"548.003","MEAN_MOTION":"15.06402076","TLE_LINE2":"2 44761  53.0551  65.6703 0001149  87.7909 272.3211 15.06402076112031","BSTAR":"0.00014568000000","LAUNCH_DATE":"2019-11-11","DECAY_DATE":null,"ECCENTRICITY":"0.00011490","REF_FRAME":"TEME","MEAN_ANOMALY":"272.3211","MEAN_MOTION_DOT":"0.00001889","GP_ID":"190270034","EPHEMERIS_TYPE":"0","COUNTRY_CODE":"US","OBJECT_ID":"2019-074BA","TIME_SYSTEM":"UTC","CENTER_NAME":"EARTH","PERIOD":"95.592","REV_AT_EPOCH":"11203","TLE_LINE1":"1 44761U 19074BA  21326.68425395  .00001889  00000-0  14568-3 0  9992","OBJECT_TYPE":"PAYLOAD","FILE":"3221463","OBJECT_NAME":"STARLINK-1056","ARG_OF_PERICENTER":"87.7909","RCS_SIZE":"LARGE","SEMIMAJOR_AXIS":"6925.342","RA_OF_ASC_NODE":"65.6703","CLASSIFICATION_TYPE":"U","NORAD_CAT_ID":"44761","SITE":"AFETR","MEAN_ELEMENT_THEORY":"SGP4","PERIAPSIS":"546.411","ELEMENT_SET_NO":"999"}];
